[{"OBJECT_NAME":"EKRAN 2","OBJECT_ID":"1977-092A","EPOCH":"2026-03-02T16:17:25.995840","MEAN_MOTION":1.00279915,"ECCENTRICITY":0.0042846,"INCLINATION":4.5102,"RA_OF_ASC_NODE":276.0895,"ARG_OF_PERICENTER":16.3352,"MEAN_ANOMALY":211.422,"EPHEMERIS_TYPE":0,"CLASSIFICATION_TYPE":"U","NORAD_CAT_ID":10365,"ELEMENT_SET_NO":999,"REV_AT_EPOCH":13378,"BSTAR":0,"MEAN_MOTION_DOT":-3.2e-6,"MEAN_MOTION_DDOT":0},{"OBJECT_NAME":"METEOSAT-1","OBJECT_ID":"1977-108A","EPOCH":"2026-03-02T17:35:51.468576","MEAN_MOTION":1.00289723,"ECCENTRICITY":0.0010703,"INCLINATION":5.344,"RA_OF_ASC_NODE":282.3513,"ARG_OF_PERICENTER":84.2358,"MEAN_ANOMALY":70.3028,"EPHEMERIS_TYPE":0,"CLASSIFICATION_TYPE":"U","NORAD_CAT_ID":10489,"ELEMENT_SET_NO":999,"REV_AT_EPOCH":13614,"BSTAR":0,"MEAN_MOTION_DOT":6.3e-7,"MEAN_MOTION_DDOT":0},{"OBJECT_NAME":"INTELSAT 4A-F3","OBJECT_ID":"1978-002A","EPOCH":"2026-03-01T21:08:58.481088","MEAN_MOTION":0.99908209,"ECCENTRICITY":0.0004839,"INCLINATION":9.1949,"RA_OF_ASC_NODE":313.3626,"ARG_OF_PERICENTER":313.8101,"MEAN_ANOMALY":241.4984,"EPHEMERIS_TYPE":0,"CLASSIFICATION_TYPE":"U","NORAD_CAT_ID":10557,"ELEMENT_SET_NO":999,"REV_AT_EPOCH":4767,"BSTAR":0,"MEAN_MOTION_DOT":9.9e-7,"MEAN_MOTION_DDOT":0},{"OBJECT_NAME":"INTELSAT 4A-F6","OBJECT_ID":"1978-035A","EPOCH":"2026-03-02T13:03:52.051680","MEAN_MOTION":1.00294752,"ECCENTRICITY":0.0008737,"INCLINATION":8.9761,"RA_OF_ASC_NODE":312.3808,"ARG_OF_PERICENTER":318.8312,"MEAN_ANOMALY":224.3018,"EPHEMERIS_TYPE":0,"CLASSIFICATION_TYPE":"U","NORAD_CAT_ID":10778,"ELEMENT_SET_NO":999,"REV_AT_EPOCH":12109,"BSTAR":0,"MEAN_MOTION_DOT":-3.06e-6,"MEAN_MOTION_DDOT":0},{"OBJECT_NAME":"OPS 8790","OBJECT_ID":"1978-038A","EPOCH":"2026-03-02T20:32:33.240192","MEAN_MOTION":1.00476217,"ECCENTRICITY":0.0018008,"INCLINATION":3.7552,"RA_OF_ASC_NODE":322.958,"ARG_OF_PERICENTER":303.4424,"MEAN_ANOMALY":220.3613,"EPHEMERIS_TYPE":0,"CLASSIFICATION_TYPE":"U","NORAD_CAT_ID":10787,"ELEMENT_SET_NO":999,"REV_AT_EPOCH":2419,"BSTAR":0,"MEAN_MOTION_DOT":1.11e-6,"MEAN_MOTION_DDOT":0},{"OBJECT_NAME":"YURI (BS)","OBJECT_ID":"1978-039A","EPOCH":"2026-03-02T17:52:04.914912","MEAN_MOTION":1.00198363,"ECCENTRICITY":0.0019493,"INCLINATION":5.7374,"RA_OF_ASC_NODE":285.0539,"ARG_OF_PERICENTER":331.3535,"MEAN_ANOMALY":242.7781,"EPHEMERIS_TYPE":0,"CLASSIFICATION_TYPE":"U","NORAD_CAT_ID":10792,"ELEMENT_SET_NO":999,"REV_AT_EPOCH":11769,"BSTAR":0,"MEAN_MOTION_DOT":-5.2e-7,"MEAN_MOTION_DDOT":0},{"OBJECT_NAME":"RADUGA 4","OBJECT_ID":"1978-073A","EPOCH":"2026-03-02T18:48:32.073120","MEAN_MOTION":1.00250446,"ECCENTRICITY":0.0011831,"INCLINATION":5.0575,"RA_OF_ASC_NODE":279.8613,"ARG_OF_PERICENTER":33.095,"MEAN_ANOMALY":239.1365,"EPHEMERIS_TYPE":0,"CLASSIFICATION_TYPE":"U","NORAD_CAT_ID":10987,"ELEMENT_SET_NO":999,"REV_AT_EPOCH":11853,"BSTAR":0,"MEAN_MOTION_DOT":-3.68e-6,"MEAN_MOTION_DDOT":0},{"OBJECT_NAME":"EKRAN 3","OBJECT_ID":"1979-015A","EPOCH":"2026-03-02T19:36:38.609856","MEAN_MOTION":1.00321692,"ECCENTRICITY":0.0041969,"INCLINATION":5.3879,"RA_OF_ASC_NODE":282.7809,"ARG_OF_PERICENTER":7.8966,"MEAN_ANOMALY":227.4101,"EPHEMERIS_TYPE":0,"CLASSIFICATION_TYPE":"U","NORAD_CAT_ID":11273,"ELEMENT_SET_NO":999,"REV_AT_EPOCH":13394,"BSTAR":0,"MEAN_MOTION_DOT":-1.1e-7,"MEAN_MOTION_DDOT":0},{"OBJECT_NAME":"RADUGA 5","OBJECT_ID":"1979-035A","EPOCH":"2026-03-02T16:10:56.618688","MEAN_MOTION":1.00296587,"ECCENTRICITY":0.0002635,"INCLINATION":5.5605,"RA_OF_ASC_NODE":283.5642,"ARG_OF_PERICENTER":226.4835,"MEAN_ANOMALY":328.0742,"EPHEMERIS_TYPE":0,"CLASSIFICATION_TYPE":"U","NORAD_CAT_ID":11343,"ELEMENT_SET_NO":999,"REV_AT_EPOCH":12829,"BSTAR":0,"MEAN_MOTION_DOT":-1.14e-6,"MEAN_MOTION_DDOT":0},{"OBJECT_NAME":"GORIZONT 2","OBJECT_ID":"1979-062A","EPOCH":"2026-03-02T16:11:41.546688","MEAN_MOTION":1.00236869,"ECCENTRICITY":0.0006857,"INCLINATION":5.9992,"RA_OF_ASC_NODE":286.944,"ARG_OF_PERICENTER":359.7924,"MEAN_ANOMALY":194.0469,"EPHEMERIS_TYPE":0,"CLASSIFICATION_TYPE":"U","NORAD_CAT_ID":11440,"ELEMENT_SET_NO":999,"REV_AT_EPOCH":13695,"BSTAR":0,"MEAN_MOTION_DOT":-1.25e-6,"MEAN_MOTION_DDOT":0},{"OBJECT_NAME":"WESTAR 3","OBJECT_ID":"1979-072A","EPOCH":"2026-03-02T01:57:45.052416","MEAN_MOTION":0.99953911,"ECCENTRICITY":0.00044332,"INCLINATION":10.429,"RA_OF_ASC_NODE":321.8259,"ARG_OF_PERICENTER":337.6727,"MEAN_ANOMALY":213.9674,"EPHEMERIS_TYPE":0,"CLASSIFICATION_TYPE":"U","NORAD_CAT_ID":11484,"ELEMENT_SET_NO":999,"REV_AT_EPOCH":13944,"BSTAR":0,"MEAN_MOTION_DOT":-2.9e-6,"MEAN_MOTION_DDOT":0},{"OBJECT_NAME":"EKRAN 4","OBJECT_ID":"1979-087A","EPOCH":"2026-03-02T17:15:54.576288","MEAN_MOTION":1.00305282,"ECCENTRICITY":0.0003188,"INCLINATION":5.859,"RA_OF_ASC_NODE":285.8589,"ARG_OF_PERICENTER":119.381,"MEAN_ANOMALY":105.6919,"EPHEMERIS_TYPE":0,"CLASSIFICATION_TYPE":"U","NORAD_CAT_ID":11561,"ELEMENT_SET_NO":999,"REV_AT_EPOCH":4630,"BSTAR":0,"MEAN_MOTION_DOT":-2.7e-6,"MEAN_MOTION_DDOT":0},{"OBJECT_NAME":"SL-12 R/B(2)","OBJECT_ID":"1975-123F","EPOCH":"2026-03-02T19:53:38.746752","MEAN_MOTION":1.00479133,"ECCENTRICITY":0.0012932,"INCLINATION":2.8189,"RA_OF_ASC_NODE":265.9411,"ARG_OF_PERICENTER":214.203,"MEAN_ANOMALY":136.5588,"EPHEMERIS_TYPE":0,"CLASSIFICATION_TYPE":"U","NORAD_CAT_ID":11568,"ELEMENT_SET_NO":999,"REV_AT_EPOCH":12092,"BSTAR":0,"MEAN_MOTION_DOT":-1.07e-6,"MEAN_MOTION_DDOT":0},{"OBJECT_NAME":"EKRAN 2 DEB","OBJECT_ID":"1977-092H","EPOCH":"2026-03-02T17:39:51.087744","MEAN_MOTION":1.00322393,"ECCENTRICITY":0.0007152,"INCLINATION":4.413,"RA_OF_ASC_NODE":275.486,"ARG_OF_PERICENTER":288.4263,"MEAN_ANOMALY":248.0898,"EPHEMERIS_TYPE":0,"CLASSIFICATION_TYPE":"U","NORAD_CAT_ID":11581,"ELEMENT_SET_NO":999,"REV_AT_EPOCH":10329,"BSTAR":0,"MEAN_MOTION_DOT":1.27e-6,"MEAN_MOTION_DDOT":0},{"OBJECT_NAME":"GORIZONT 3","OBJECT_ID":"1979-105A","EPOCH":"2026-03-02T18:51:51.744384","MEAN_MOTION":1.00197875,"ECCENTRICITY":0.0010788,"INCLINATION":6.1883,"RA_OF_ASC_NODE":288.8073,"ARG_OF_PERICENTER":271.2587,"MEAN_ANOMALY":326.6563,"EPHEMERIS_TYPE":0,"CLASSIFICATION_TYPE":"U","NORAD_CAT_ID":11648,"ELEMENT_SET_NO":999,"REV_AT_EPOCH":12141,"BSTAR":0,"MEAN_MOTION_DOT":-1.73e-6,"MEAN_MOTION_DDOT":0},{"OBJECT_NAME":"OPS 6393 (FLTSATCOM 3)","OBJECT_ID":"1980-004A","EPOCH":"2026-03-02T12:08:19.875840","MEAN_MOTION":1.00195235,"ECCENTRICITY":0.0021106,"INCLINATION":6.3896,"RA_OF_ASC_NODE":307.1031,"ARG_OF_PERICENTER":246.4386,"MEAN_ANOMALY":92.8562,"EPHEMERIS_TYPE":0,"CLASSIFICATION_TYPE":"U","NORAD_CAT_ID":11669,"ELEMENT_SET_NO":999,"REV_AT_EPOCH":16878,"BSTAR":0,"MEAN_MOTION_DOT":-3.09e-6,"MEAN_MOTION_DDOT":0},{"OBJECT_NAME":"SL-12 R/B(2)","OBJECT_ID":"1975-097F","EPOCH":"2026-03-02T16:56:25.249920","MEAN_MOTION":1.00094565,"ECCENTRICITY":0.0020926,"INCLINATION":2.6327,"RA_OF_ASC_NODE":263.5678,"ARG_OF_PERICENTER":222.5704,"MEAN_ANOMALY":164.1245,"EPHEMERIS_TYPE":0,"CLASSIFICATION_TYPE":"U","NORAD_CAT_ID":11676,"ELEMENT_SET_NO":999,"REV_AT_EPOCH":11807,"BSTAR":0,"MEAN_MOTION_DOT":3.5e-7,"MEAN_MOTION_DDOT":0}]
