EKRAN 2                 
1 10365U 77092A   26061.67877310 -.00000320  00000+0  00000+0 0  9998
2 10365   4.5102 276.0895 0042846  16.3352 211.4220  1.00279915133788
METEOSAT-1              
1 10489U 77108A   26061.73323459  .00000063  00000+0  00000+0 0  9993
2 10489   5.3440 282.3513 0010703  84.2358  70.3028  1.00289723136142
INTELSAT 4A-F3          
1 10557U 78002A   26060.88123242  .00000099  00000+0  00000+0 0  9995
2 10557   9.1949 313.3626 0004839 313.8101 241.4984  0.99908209 47679
INTELSAT 4A-F6          
1 10778U 78035A   26061.54435245 -.00000306  00000+0  00000+0 0  9991
2 10778   8.9761 312.3808 0008737 318.8312 224.3018  1.00294752121095
OPS 8790                
1 10787U 78038A   26061.85594028  .00000111  00000+0  00000+0 0  9996
2 10787   3.7552 322.9580 0018008 303.4424 220.3613  1.00476217 24194
YURI (BS)               
1 10792U 78039A   26061.74450133 -.00000052  00000+0  00000+0 0  9994
2 10792   5.7374 285.0539 0019493 331.3535 242.7781  1.00198363117694
RADUGA 4                
1 10987U 78073A   26061.78370455 -.00000368  00000+0  00000+0 0  9990
2 10987   5.0575 279.8613 0011831  33.0950 239.1365  1.00250446118538
EKRAN 3                 
1 11273U 79015A   26061.81711354 -.00000011  00000+0  00000+0 0  9992
2 11273   5.3879 282.7809 0041969   7.8966 227.4101  1.00321692133940
RADUGA 5                
1 11343U 79035A   26061.67426642 -.00000114  00000+0  00000+0 0  9993
2 11343   5.5605 283.5642 0002635 226.4835 328.0742  1.00296587128297
GORIZONT 2              
1 11440U 79062A   26061.67478642 -.00000125  00000+0  00000+0 0  9990
2 11440   5.9992 286.9440 0006857 359.7924 194.0469  1.00236869136956
WESTAR 3                
1 11484U 79072A   26061.08177144 -.00000290  00000+0  00000+0 0  9990
2 11484  10.4290 321.8259 0004433 337.6727 213.9674  0.99953911139444
EKRAN 4                 
1 11561U 79087A   26061.71938167 -.00000270  00000+0  00000+0 0  9990
2 11561   5.8590 285.8589 0003188 119.3810 105.6919  1.00305282 46306
SL-12 R/B(2)            
1 11568U 75123F   26061.82892068 -.00000107  00000+0  00000+0 0  9994
2 11568   2.8189 265.9411 0012932 214.2030 136.5588  1.00479133120926
EKRAN 2 DEB             
1 11581U 77092H   26061.73600796  .00000127  00000+0  00000+0 0  9992
2 11581   4.4130 275.4860 0007152 288.4263 248.0898  1.00322393103297
GORIZONT 3              
1 11648U 79105A   26061.78601556 -.00000173  00000+0  00000+0 0  9995
2 11648   6.1883 288.8073 0010788 271.2587 326.6563  1.00197875121418
OPS 6393 (FLTSATCOM 3)  
1 11669U 80004A   26061.50578560 -.00000309  00000+0  00000+0 0  9997
2 11669   6.3896 307.1031 0021106 246.4386  92.8562  1.00195235168783
SL-12 R/B(2)            
1 11676U 75097F   26061.70584780  .00000035  00000+0  00000+0 0  9999
2 11676   2.6327 263.5678 0020926 222.5704 164.1245  1.00094565118071
